QIANFAN-105             
1 66047U 25233Q   26011.60626525  .00000136  00000+0  98702-4 0  9999
2 66047  88.9936  58.8813 0013741 313.9419  46.0620 13.90528090 12140
QIANFAN-106             
1 66048U 25233R   26011.54555018  .00000084  00000+0  10950-3 0  9991
2 66048  88.9919  59.0468 0013431 311.3546  48.6450 13.52128801 12042
QIANFAN-107             
1 66049U 25233S   26011.62970873  .00000046  00000+0  53614-4 0  9994
2 66049  88.9936  59.0463 0013491 316.2729  43.7353 13.50970732 12055
QIANFAN-108             
1 66050U 25233T   26011.62852205  .00000049  00000+0  58962-4 0  9998
2 66050  88.9929  59.0440 0012568 315.6409  44.3734 13.49662451 12050
